UNKNOWN                 
1 84188U          26032.55988878  .00180093  00000+0  79036-1 0  9996
2 84188  65.0029 212.5243 3581027  13.1078 354.2282  7.94449098 45210
UNKNOWN                 
1 84232U          26033.38164061  .00029442  00000+0  23727-1 0  9994
2 84232  20.3180 244.3400 6547582 118.1845 321.4865  3.19189132106336
UNKNOWN                 
1 84236U          26030.31941593  .00000954  00000+0  60458-2 0  9991
2 84236   9.3822 313.5078 6892194 137.1967 304.4390  2.62602612115253
UNKNOWN                 
1 84292U          26033.44173944  .00003851  00000+0  22322-2 0  9994
2 84292  23.8213  88.7009 4559082   4.5941 358.5218  6.21959554231288
UNKNOWN                 
1 84406U          26008.21880314  .00000785  00000+0  43231-2 0  9999
2 84406 101.7141 157.7019 0042055 340.3466 199.3092 12.67381377 52646
UNKNOWN                 
1 84407U          26016.92332814  .00000260  00000+0  12077-1 0  9995
2 84407  19.4644 312.1530 7202436  80.6851 347.5491  2.05777016 76595
UNKNOWN                 
1 84575U          26031.86909410 -.00000228  00000+0 -55182-2 0  9994
2 84575  18.0349 141.9100 7107899  52.9445 352.6444  2.19877659 66567
UNKNOWN                 
1 84932U          26033.66298332  .00001131  00000+0  89483-2 0  9998
2 84932   2.0309 212.4977 6578183 115.0040 241.9846  3.00067953133333
UNKNOWN                 
1 85004U          26032.40251093  .00001354  00000+0  42700-3 0  9992
2 85004  98.4271   7.7073 0047362  11.7224 140.3174 14.41245460638191
UNKNOWN                 
1 85010U          26023.58836398  .00001614  00000+0  17271-2 0  9998
2 85010  99.2489 249.2205 0025029 142.7232 245.1689 13.75158132609679
UNKNOWN                 
1 85015U          26028.49801653  .00000907  00000+0  18519-3 0  9995
2 85015  74.0507 308.7221 0015747 207.7502 152.2827 14.62364305649442
UNKNOWN                 
1 85023U          26033.32367513  .00028338  00000+0  39214-2 0  9996
2 85023  99.8451  65.0003 0003076 158.0077 214.5586 14.77990362636446
